[{"OBJECT_NAME":"STARLINK-31039","OBJECT_ID":"2024-011V","EPOCH":"2026-03-09T23:33:07.163424","MEAN_MOTION":15.30180102,"ECCENTRICITY":0.0001024,"INCLINATION":53.1634,"RA_OF_ASC_NODE":12.4032,"ARG_OF_PERICENTER":78.2875,"MEAN_ANOMALY":281.824,"EPHEMERIS_TYPE":0,"CLASSIFICATION_TYPE":"U","NORAD_CAT_ID":58784,"ELEMENT_SET_NO":999,"REV_AT_EPOCH":12031,"BSTAR":9.7795374e-5,"MEAN_MOTION_DOT":2.537e-5,"MEAN_MOTION_DDOT":0},{"OBJECT_NAME":"TEVEL2-1","OBJECT_ID":"2025-052H","EPOCH":"2026-03-09T15:32:51.927072","MEAN_MOTION":15.30341923,"ECCENTRICITY":0.0004767,"INCLINATION":97.3991,"RA_OF_ASC_NODE":324.7682,"ARG_OF_PERICENTER":104.8919,"MEAN_ANOMALY":255.2849,"EPHEMERIS_TYPE":0,"CLASSIFICATION_TYPE":"U","NORAD_CAT_ID":63217,"ELEMENT_SET_NO":999,"REV_AT_EPOCH":5485,"BSTAR":0.000706,"MEAN_MOTION_DOT":0.00020683,"MEAN_MOTION_DDOT":0}]
